{
  "links" : {
    "next" : "https://api.nasa.gov/neo/rest/v1/feed?start_date=2006-11-16&end_date=2006-11-16&detailed=true&api_key=t0TVs3DtDT2H8Oy2Zy8m2eVrNsAVKAexjcZXUckd",
    "prev" : "https://api.nasa.gov/neo/rest/v1/feed?start_date=2006-11-14&end_date=2006-11-14&detailed=true&api_key=t0TVs3DtDT2H8Oy2Zy8m2eVrNsAVKAexjcZXUckd",
    "self" : "https://api.nasa.gov/neo/rest/v1/feed?start_date=2006-11-15&end_date=2006-11-15&detailed=true&api_key=t0TVs3DtDT2H8Oy2Zy8m2eVrNsAVKAexjcZXUckd"
  },
  "element_count" : 10,
  "near_earth_objects" : {
    "2006-11-15" : [ {
      "links" : {
        "self" : "https://api.nasa.gov/neo/rest/v1/neo/3358116?api_key=t0TVs3DtDT2H8Oy2Zy8m2eVrNsAVKAexjcZXUckd"
      },
      "neo_reference_id" : "3358116",
      "name" : "(2006 VC2)",
      "nasa_jpl_url" : "http://ssd.jpl.nasa.gov/sbdb.cgi?sstr=3358116",
      "absolute_magnitude_h" : 21.1,
      "estimated_diameter" : {
        "kilometers" : {
          "estimated_diameter_min" : 0.160160338,
          "estimated_diameter_max" : 0.358129403
        },
        "meters" : {
          "estimated_diameter_min" : 160.1603379786,
          "estimated_diameter_max" : 358.1294030194
        },
        "miles" : {
          "estimated_diameter_min" : 0.0995189894,
          "estimated_diameter_max" : 0.2225312253
        },
        "feet" : {
          "estimated_diameter_min" : 525.4604432536,
          "estimated_diameter_max" : 1174.9652706022
        }
      },
      "is_potentially_hazardous_asteroid" : false,
      "close_approach_data" : [ {
        "close_approach_date" : "2006-11-15",
        "epoch_date_close_approach" : 1163577600000,
        "relative_velocity" : {
          "kilometers_per_second" : "14.9598067507",
          "kilometers_per_hour" : "53855.3043025063",
          "miles_per_hour" : "33463.5917206323"
        },
        "miss_distance" : {
          "astronomical" : "0.2680242839",
          "lunar" : "104.2614517212",
          "kilometers" : "40095864",
          "miles" : "24914414"
        },
        "orbiting_body" : "Earth"
      } ],
      "orbital_data" : {
        "orbit_id" : "9",
        "orbit_determination_date" : "2017-04-06 09:07:41",
        "orbit_uncertainty" : "8",
        "minimum_orbit_intersection" : ".265944",
        "jupiter_tisserand_invariant" : "3.496",
        "epoch_osculation" : "2454052.5",
        "eccentricity" : ".4223711030467768",
        "semi_major_axis" : "2.101471172109099",
        "inclination" : "27.75756898021135",
        "ascending_node_longitude" : "226.2053357102836",
        "orbital_period" : "1112.714076052646",
        "perihelion_distance" : "1.213870475124376",
        "perihelion_argument" : "211.7134467723236",
        "aphelion_distance" : "2.989071869093822",
        "perihelion_time" : "2454084.695990471108",
        "mean_anomaly" : "349.5835266048612",
        "mean_motion" : ".3235332487902914",
        "equinox" : "J2000"
      }
    }, {
      "links" : {
        "self" : "https://api.nasa.gov/neo/rest/v1/neo/3358521?api_key=t0TVs3DtDT2H8Oy2Zy8m2eVrNsAVKAexjcZXUckd"
      },
      "neo_reference_id" : "3358521",
      "name" : "(2006 VF13)",
      "nasa_jpl_url" : "http://ssd.jpl.nasa.gov/sbdb.cgi?sstr=3358521",
      "absolute_magnitude_h" : 23.2,
      "estimated_diameter" : {
        "kilometers" : {
          "estimated_diameter_min" : 0.0608912622,
          "estimated_diameter_max" : 0.1361570015
        },
        "meters" : {
          "estimated_diameter_min" : 60.8912622106,
          "estimated_diameter_max" : 136.1570015386
        },
        "miles" : {
          "estimated_diameter_min" : 0.0378360645,
          "estimated_diameter_max" : 0.0846040122
        },
        "feet" : {
          "estimated_diameter_min" : 199.7744887109,
          "estimated_diameter_max" : 446.7093369279
        }
      },
      "is_potentially_hazardous_asteroid" : false,
      "close_approach_data" : [ {
        "close_approach_date" : "2006-11-15",
        "epoch_date_close_approach" : 1163577600000,
        "relative_velocity" : {
          "kilometers_per_second" : "13.7457571172",
          "kilometers_per_hour" : "49484.7256217735",
          "miles_per_hour" : "30747.8840953736"
        },
        "miss_distance" : {
          "astronomical" : "0.0406454628",
          "lunar" : "15.8110847473",
          "kilometers" : "6080474.5",
          "miles" : "3778231.75"
        },
        "orbiting_body" : "Earth"
      } ],
      "orbital_data" : {
        "orbit_id" : "7",
        "orbit_determination_date" : "2017-04-06 09:07:39",
        "orbit_uncertainty" : "9",
        "minimum_orbit_intersection" : ".0122803",
        "jupiter_tisserand_invariant" : "4.828",
        "epoch_osculation" : "2454054.5",
        "eccentricity" : ".2501001236161604",
        "semi_major_axis" : "1.320728027401148",
        "inclination" : "24.40450087620045",
        "ascending_node_longitude" : "235.5742674088252",
        "orbital_period" : "554.3939958069166",
        "perihelion_distance" : ".9904137844847931",
        "perihelion_argument" : "161.2399009799623",
        "aphelion_distance" : "1.651042270317503",
        "perihelion_time" : "2454038.547872783880",
        "mean_anomaly" : "10.35863635111099",
        "mean_motion" : ".649357681942465",
        "equinox" : "J2000"
      }
    }, {
      "links" : {
        "self" : "https://api.nasa.gov/neo/rest/v1/neo/2417655?api_key=t0TVs3DtDT2H8Oy2Zy8m2eVrNsAVKAexjcZXUckd"
      },
      "neo_reference_id" : "2417655",
      "name" : "417655 (2006 YF13)",
      "nasa_jpl_url" : "http://ssd.jpl.nasa.gov/sbdb.cgi?sstr=2417655",
      "absolute_magnitude_h" : 19.9,
      "estimated_diameter" : {
        "kilometers" : {
          "estimated_diameter_min" : 0.2783267681,
          "estimated_diameter_max" : 0.6223575734
        },
        "meters" : {
          "estimated_diameter_min" : 278.3267680719,
          "estimated_diameter_max" : 622.3575733667
        },
        "miles" : {
          "estimated_diameter_min" : 0.1729441822,
          "estimated_diameter_max" : 0.3867149477
        },
        "feet" : {
          "estimated_diameter_min" : 913.1455937611,
          "estimated_diameter_max" : 2041.8556210042
        }
      },
      "is_potentially_hazardous_asteroid" : false,
      "close_approach_data" : [ {
        "close_approach_date" : "2006-11-15",
        "epoch_date_close_approach" : 1163577600000,
        "relative_velocity" : {
          "kilometers_per_second" : "9.6257924503",
          "kilometers_per_hour" : "34652.8528211087",
          "miles_per_hour" : "21531.9351320939"
        },
        "miss_distance" : {
          "astronomical" : "0.1744822596",
          "lunar" : "67.8735961914",
          "kilometers" : "26102174",
          "miles" : "16219139"
        },
        "orbiting_body" : "Earth"
      } ],
      "orbital_data" : {
        "orbit_id" : "31",
        "orbit_determination_date" : "2017-04-06 09:21:16",
        "orbit_uncertainty" : "0",
        "minimum_orbit_intersection" : ".0807597",
        "jupiter_tisserand_invariant" : "6.419",
        "epoch_osculation" : "2458000.5",
        "eccentricity" : ".4034355461548302",
        "semi_major_axis" : ".9188845107918439",
        "inclination" : "10.53351561859993",
        "ascending_node_longitude" : "205.297250983349",
        "orbital_period" : "321.7287141305948",
        "perihelion_distance" : ".5481738363273223",
        "perihelion_argument" : "95.41295794635703",
        "aphelion_distance" : "1.289595185256365",
        "perihelion_time" : "2457849.117317436306",
        "mean_anomaly" : "169.3904315323507",
        "mean_motion" : "1.118955145091185",
        "equinox" : "J2000"
      }
    } ]
  }
}